NORAD_CAT_ID,OBJECT_NAME,OBJECT_TYPE,EPOCH,MEAN_MOTION,ECCENTRICITY,INCLINATION,RA_OF_ASC_NODE,ARG_OF_PERICENTER,MEAN_ANOMALY,BSTAR,MEAN_MOTION_DOT,MEAN_MOTION_DDOT,TLE_LINE0,TLE_LINE1,TLE_LINE2,SEMIMAJOR_AXIS,PERIOD,APOGEE,PERIGEE,DECAYED
51733.0,STARLINK-3525,PAYLOAD,2022-08-20 14:00:01,15.08841538,0.0001547,53.2188,22.0476,51.4906,89.45299999999996,-0.0013644,-0.00021938,0.0,0 STARLINK-3525,1 51733U 22016V   22232.58334491 -.00021938  00000-0 -13644-2 0  9993,2 51733  53.2188  22.0476 0001547  51.4906  89.4530 15.08841538  1307,6917.876,95.437,540.811,538.67,0.0
51733.0,STARLINK-3525,PAYLOAD,2022-08-20 16:00:00,15.08832954,0.0001609,53.2187,21.674,49.0855,184.7577,-0.00051885,-8.534e-05,0.0,0 STARLINK-3525,1 51733U 22016V   22232.66667824 -.00008534  00000-0 -51885-3 0  9998,2 51733  53.2187  21.6740 0001609  49.0855 184.7577 15.08832954 28828,6917.901999999999,95.438,540.88,538.654,0.0
51733.0,STARLINK-3525,PAYLOAD,2022-08-20 22:00:00,15.08821365,0.0001651,53.2187,20.5521,45.1171,107.4146,0.0023336,0.00037028,0.0,0 STARLINK-3525,1 51733U 22016V   22232.91667824  .00037028  00000-0  23336-2 0  9993,2 51733  53.2187  20.5521 0001651  45.1171 107.4146 15.08821365  1300,6917.937,95.439,540.945,538.66,0.0
51733.0,STARLINK-3525,PAYLOAD,2022-08-21 14:00:01,15.08859595,0.0001644,53.2192,17.5587,52.4559,123.2523,-0.0039009,-0.00061871,0.0,0 STARLINK-3525,1 51733U 22016V   22233.58334491 -.00061871  00000-0 -39009-2 0  9997,2 51733  53.2192  17.5587 0001644  52.4559 123.2523 15.08859595  1308,6917.82,95.436,540.823,538.548,0.0
51733.0,STARLINK-3525,PAYLOAD,2022-08-22 00:00:00,15.08840968,0.0001706,53.219,15.6885,49.6269,230.5609,-0.0015097,-0.00024235,0.0,0 STARLINK-3525,1 51733U 22016V   22234.00001157 -.00024235  00000-0 -15097-2 0  9999,2 51733  53.2190  15.6885 0001706  49.6269 230.5609 15.08840968  1302,6917.877,95.437,540.923,538.562,0.0
51733.0,STARLINK-3525,PAYLOAD,2022-08-22 06:00:00,15.08809058,0.0001571999999999,53.2192,14.565,54.6955,144.1899,0.0028066,0.00044624,0.0,0 STARLINK-3525,1 51733U 22016V   22234.25001157  .00044624  00000-0  28066-2 0  9998,2 51733  53.2192  14.5650 0001572  54.6955 144.1899 15.08809058 29060,6917.975,95.44,540.927,538.752,0.0
51733.0,STARLINK-3525,PAYLOAD,2022-08-22 12:00:00,15.08849596,0.0001631999999999,53.2194,13.4434,55.6453,61.9122,-0.0013074999999999,-0.00021042,0.0,0 STARLINK-3525,1 51733U 22016V   22234.50001157 -.00021042  00000-0 -13075-2 0  9991,2 51733  53.2194  13.4434 0001632  55.6453  61.9122 15.08849596  1304,6917.851,95.437,540.845,538.587,0.0
51733.0,STARLINK-3525,PAYLOAD,2022-08-22 22:00:00,15.08839246,0.000173,53.219,11.574000000000002,49.0179,173.0331,0.00069232,0.00010747,0.0,0 STARLINK-3525,1 51733U 22016V   22234.91667824  .00010747  00000-0  69232-3 0  9990,2 51733  53.2190  11.5740 0001730  49.0179 173.0331 15.08839246 29162,6917.8830000000025,95.438,540.944,538.5509999999998,0.0
51733.0,STARLINK-3525,PAYLOAD,2022-08-23 00:00:00,15.08858699,0.000168,53.219,11.1994,50.2471,264.6981,-0.0018798999999999,-0.00030098,0.0,0 STARLINK-3525,1 51733U 22016V   22235.00001157 -.00030098  00000-0 -18799-2 0  9996,2 51733  53.2190  11.1994 0001680  50.2471 264.6981 15.08858699  1309,6917.823,95.436,540.85,538.526,0.0
51733.0,STARLINK-3525,PAYLOAD,2022-08-23 14:00:01,15.0885695,0.0001651,53.2192,8.5811,53.6177,191.6274,-0.0013539,-0.00021781,0.0,0 STARLINK-3525,1 51733U 22016V   22235.58334491 -.00021781  00000-0 -13539-2 0  9995,2 51733  53.2192   8.5811 0001651  53.6177 191.6274 15.08856950  1309,6917.829000000002,95.436,540.836,538.5509999999998,0.0
51733.0,STARLINK-3525,PAYLOAD,2022-08-23 22:00:01,15.08854898,0.0001694,53.2188,7.0849,50.2329,206.679,-0.00017026,-2.998e-05,0.0,0 STARLINK-3525,1 51733U 22016V   22235.91668981 -.00002998  00000-0 -17026-3 0  9991,2 51733  53.2188   7.0849 0001694  50.2329 206.6790 15.08854898 29318,6917.835,95.437,540.872,538.528,0.0
51733.0,STARLINK-3525,PAYLOAD,2022-08-24 14:00:01,15.08836836,0.0001751999999999,53.2189,4.0923,56.6156,223.4523,-0.001274,-0.00020505,0.0,0 STARLINK-3525,1 51733U 22016V   22236.58334491 -.00020505  00000-0 -12740-2 0  9992,2 51733  53.2189   4.0923 0001752  56.6156 223.4523 15.08836836  1304,6917.89,95.438,540.967,538.543,0.0
51733.0,STARLINK-3525,PAYLOAD,2022-08-24 22:00:00,15.08840286,0.0001766,53.2185,2.596,53.4657,238.181,-0.00081881,-0.00013296,0.0,0 STARLINK-3525,1 51733U 22016V   22236.91667824 -.00013296  00000-0 -81881-3 0  9990,2 51733  53.2185   2.5960 0001766  53.4657 238.1810 15.08840286 29463,6917.88,95.438,540.966,538.523,0.0
51733.0,STARLINK-3525,PAYLOAD,2022-08-25 14:00:01,15.08844327,0.0001785,53.2186,359.6035,56.8333,257.9896,-0.0011535999999999,-0.00018603,0.0,0 STARLINK-3525,1 51733U 22016V   22237.58334491 -.00018603  00000-0 -11536-2 0  9991,2 51733  53.2186 359.6035 0001785  56.8333 257.9896 15.08844327  1308,6917.8669999999975,95.437,540.967,538.497,0.0
51733.0,STARLINK-3525,PAYLOAD,2022-08-25 22:00:00,15.08852732,0.0001781999999999,53.2185,358.1072,53.4799,272.931,-0.0012477,-0.00020097,0.0,0 STARLINK-3525,1 51733U 22016V   22237.91667824 -.00020097  00000-0 -12477-2 0  9992,2 51733  53.2185 358.1072 0001782  53.4799 272.9310 15.08852732 29619,6917.840999999999,95.437,540.939,538.474,0.0
51733.0,STARLINK-3525,PAYLOAD,2022-08-26 14:00:01,15.08826616,0.0001746,53.2187,355.1148,53.7585,295.8771,-0.0010544,-0.00017024,0.0,0 STARLINK-3525,1 51733U 22016V   22238.58335648 -.00017024  00000-0 -10544-2 0  9991,2 51733  53.2187 355.1148 0001746  53.7585 295.8771 15.08826616  1301,6917.920999999999,95.438,540.994,538.578,0.0
51733.0,STARLINK-3525,PAYLOAD,2022-08-26 22:00:00,15.08840416,0.0001736,53.2187,353.6183,50.543,310.5999,-0.0014382,-0.00023105,0.0,0 STARLINK-3525,1 51733U 22016V   22238.91667824 -.00023105  00000-0 -14382-2 0  9993,2 51733  53.2187 353.6183 0001736  50.5430 310.5999 15.08840416  1318,6917.879,95.438,540.945,538.543,0.0
51733.0,STARLINK-3525,PAYLOAD,2022-08-27 14:00:01,15.08842043,0.0001821999999999,53.219,350.6262,52.8698,331.4443,-0.00086728,-0.00014065,0.0,0 STARLINK-3525,1 51733U 22016V   22239.58334491 -.00014065  00000-0 -86728-3 0  9997,2 51733  53.2190 350.6262 0001822  52.8698 331.4443 15.08842043  1307,6917.874,95.437,541.0,538.479,0.0
51733.0,STARLINK-3525,PAYLOAD,2022-08-27 22:00:00,15.0885965,0.0001794,53.2191,349.1295,50.3004,345.603,-0.0014177999999999,-0.00022794,0.0,0 STARLINK-3525,1 51733U 22016V   22239.91667824 -.00022794  00000-0 -14178-2 0  9990,2 51733  53.2191 349.1295 0001794  50.3004 345.6030 15.08859650 29928,6917.82,95.436,540.9259999999998,538.444,0.0
51733.0,STARLINK-3525,PAYLOAD,2022-08-28 14:00:01,15.08868737,0.0001853,53.2194,346.1375,51.4377,7.6857,-0.0014959,-0.00024035,0.0,0 STARLINK-3525,1 51733U 22016V   22240.58334491 -.00024035  00000-0 -14959-2 0  9993,2 51733  53.2194 346.1375 0001853  51.4377   7.6857 15.08868737 30029,6917.793000000002,95.436,540.939,538.376,0.0
51733.0,STARLINK-3525,PAYLOAD,2022-08-28 22:00:00,15.08864564,0.0001744,53.2195,344.6407,48.9238,21.815,-0.0031859,-0.0005067,0.0,0 STARLINK-3525,1 51733U 22016V   22240.91667824 -.00050670  00000-0 -31859-2 0  9991,2 51733  53.2195 344.6407 0001744  48.9238  21.8150 15.08864564  1302,6917.805,95.436,540.877,538.464,0.0
51733.0,STARLINK-3525,PAYLOAD,2022-08-29 14:00:01,15.08824202,0.0001696999999999,53.2196,341.6488,47.1834,46.754,-0.0010335,-0.00016691,0.0,0 STARLINK-3525,1 51733U 22016V   22241.58334491 -.00016691  00000-0 -10335-2 0  9997,2 51733  53.2196 341.6488 0001697  47.1834  46.7540 15.08824202  1303,6917.929,95.439,540.9680000000002,538.62,0.0
51733.0,STARLINK-3525,PAYLOAD,2022-08-29 16:00:00,15.08803105,0.0001717,53.2198,341.275,45.01600000000001,141.8224,0.0022759,0.00036082,0.0,0 STARLINK-3525,1 51733U 22016V   22241.66667824  .00036082  00000-0  22759-2 0  9992,2 51733  53.2198 341.2750 0001717  45.0160 141.8224 15.08803105 30188,6917.993,95.44,541.0459999999998,538.67,0.0
51733.0,STARLINK-3525,PAYLOAD,2022-08-29 22:00:00,15.08840833,0.0001636999999999,53.2195,340.1519,46.0181,59.4883,-0.0016658,-0.00026702,0.0,0 STARLINK-3525,1 51733U 22016V   22241.91667824 -.00026702  00000-0 -16658-2 0  9991,2 51733  53.2195 340.1519 0001637  46.0181  59.4883 15.08840833  1307,6917.878000000002,95.438,540.875,538.61,0.0
51733.0,STARLINK-3525,PAYLOAD,2022-08-30 14:00:01,15.08834461,0.0001679,53.2194,337.1602,46.4578,82.2181,7.2833e-05,8.71e-06,0.0,0 STARLINK-3525,1 51733U 22016V   22242.58334491  .00000871  00000-0  72833-4 0  9992,2 51733  53.2194 337.1602 0001679  46.4578  82.2181 15.08834461  1300,6917.897,95.438,540.924,538.601,0.0
51733.0,STARLINK-3525,PAYLOAD,2022-08-30 16:00:00,15.08817954,0.0001706999999999,53.2195,336.7864,44.6035,176.9744,0.0025533,0.00040557,0.0,0 STARLINK-3525,1 51733U 22016V   22242.66667824  .00040557  00000-0  25533-2 0  9998,2 51733  53.2195 336.7864 0001707  44.6035 176.9744 15.08817954 30335,6917.948,95.439,540.994,538.632,0.0
51733.0,STARLINK-3525,PAYLOAD,2022-08-30 22:00:00,15.08857071,0.0001603,53.2191,335.6631,46.5349,93.726,-0.0017644,-0.00028272,0.0,0 STARLINK-3525,1 51733U 22016V   22242.91667824 -.00028272  00000-0 -17644-2 0  9992,2 51733  53.2191 335.6631 0001603  46.5349  93.7260 15.08857071  1303,6917.828,95.436,540.802,538.5840000000002,0.0
51733.0,STARLINK-3525,PAYLOAD,2022-08-31 14:00:01,15.08856246,0.0001708,53.2189,332.6715,47.3158,116.1565,-0.0014237,-0.00022885,0.0,0 STARLINK-3525,1 51733U 22016V   22243.58334491 -.00022885  00000-0 -14237-2 0  9996,2 51733  53.2189 332.6715 0001708  47.3158 116.1565 15.08856246  1304,6917.831,95.437,540.877,538.514,0.0
51733.0,STARLINK-3525,PAYLOAD,2022-08-31 22:00:00,15.08849724,0.0001664,53.2185,331.1741,49.6877,125.3934,-0.0026669,-0.00042493,0.0,0 STARLINK-3525,1 51733U 22016V   22243.91667824 -.00042493  00000-0 -26669-2 0  9991,2 51733  53.2185 331.1741 0001664  49.6877 125.3934 15.08849724 30528,6917.851,95.437,540.867,538.565,0.0
